ORBCOMM FM108           
1 41187U 15081J   25114.79175415  .00002107  00000+0  49027-3 0  9992
2 41187  47.0058 359.1168 0002235  62.4862 297.6251 14.58042585499006
ORBCOMM FM117           
1 41188U 15081K   25114.89505790  .00002059  00000+0  47992-3 0  9992
2 41188  47.0019 357.4091 0002649  71.7048 288.4126 14.58050213499060
ORBCOMM FM116           
1 41189U 15081L   25114.95270504  .00001210  00000+0  29701-3 0  9998
2 41189  47.0014  86.9820 0003201 275.9228  84.1293 14.58055144497885
